#aV2012 11 27  0  0  0.00000000     288 DD+AD WGS84 FIT  NGA
## 1716 172800.00000000   300.00000000 56258 0.0000000000000
+   31     1  2  3  4  5  6  7  8  9 10 11 12 13 14 15 16 17
+         18 19 20 21 22 23 24 25 26 28 29 30 31 32  0  0  0
+          0  0  0  0  0  0  0  0  0  0  0  0  0  0  0  0  0
+          0  0  0  0  0  0  0  0  0  0  0  0  0  0  0  0  0
+          0  0  0  0  0  0  0  0  0  0  0  0  0  0  0  0  0
++         2  2  2  2  2  2  2  2  2  2  2  2  2  2  2  2  2
++         2  2  2  2  2  2  2  2  2  2  2  2  2  2  2  0  0
++         0  0  0  0  0  0  0  0  0  0  0  0  0  0  0  0  0
++         0  0  0  0  0  0  0  0  0  0  0  0  0  0  0  0  0
++         0  0  0  0  0  0  0  0  0  0  0  0  0  0  0  0  0
%c cc cc ccc ccc cccc cccc cccc cccc ccccc ccccc ccccc ccccc
%c cc cc ccc ccc cccc cccc cccc cccc ccccc ccccc ccccc ccccc
%f  0.0000000  0.000000000  0.00000000000  0.000000000000000
%f  0.0000000  0.000000000  0.00000000000  0.000000000000000
%i    0    0    0    0      0      0      0      0         0
%i    0    0    0    0      0      0      0      0         0
/*      NGA, ST. LOUIS,MO.                                  
/*   EPHEMERIS COMPUTED FROM  1 DAYS OF DATA
/*   EPOCHA SMOOTHER  
/* CCCCCCCCCCCCCCCCCCCCCCCCCCCCCCCCCCCCCCCCCCCCCCCCCCCCCCCCC
*  2012 11 27  5 15  0.00000000                                                 
P  1 -21028.987949 -14295.211082  -7804.940988    284.494325                    
V  1  10131.301723   1232.658601 -29582.266441      0.019262                    
P  2   2602.830629  17044.097489  20476.808913    410.066837                    
V  2 -24242.032080  -8309.728111   9565.167477      0.010596                    
P  3   2932.602139 -20805.993794 -16607.905668    133.932218                    
V  3  15810.786704 -13019.439840  19938.136954      0.050949                    
P  4 -14549.018685   9812.289247  19740.236115     58.168228                    
V  4 -23396.655106 -10651.753559 -11489.513111      0.111877                    
P  5   2450.102055  26299.775923   1887.522577   -369.206790                    
V  5  -3589.658809  -1948.666037  31488.108304     -0.024258                    
P  6   9810.386624 -21005.440758 -12560.895721    443.695678                    
V  6  14222.210257  -8505.242767  25461.863813     -0.124867                    
P  7 -25211.475721  -5761.024152  -6642.238165    150.305587                    
V  7  -6962.529396  -5128.416882  30406.690193      0.044548                    
P  8 -20430.330634   1675.072733 -17117.026491      3.084731                    
V  8 -18769.563698 -10752.872152  20657.361102      0.002284                    
P  9  16062.775540  16296.990082 -13965.112807    202.558662                    
V  9 -16195.125906  -4758.784452 -25215.687128      0.026517                    
P 10 -10038.958268  17513.194234  16770.893146    -59.966378                    
V 10  -5076.814838 -21573.052177  19583.963937     -0.014459                    
P 11 -17522.671804 -13912.113689 -14944.833248   -327.356671                    
V 11  18619.856005  -1433.970325 -20803.751224     -0.038897                    
P 12  11537.453843  19614.219607  13839.436244    103.791773                    
V 12    460.293418  17549.618976 -25035.485310      0.020348                    
P 13 -21433.127635   1435.319286  15559.361030    164.347682                    
V 13  15982.855759 -11961.213135  22813.125206     -0.026949                    
P 14  22063.472924 -14629.765684   -476.991336    217.398279                    
V 14    678.589155   2497.882910 -32187.062460      0.005982                    
P 15   7329.129509  14014.499922 -21327.306815   -100.676337                    
V 15 -21250.104186  16903.263173   4045.190025     -0.009837                    
P 16  -1273.493219 -26289.992306   1864.213226   -250.104476                    
V 16   2585.180279   2152.639361  32339.208944     -0.004932                    
P 17 -21286.036899  15659.750992    230.914319     74.852938                    
V 17  -1777.869594  -2332.628330 -31985.934495     -0.035810                    
P 18  15777.713597   -500.267238 -20994.600487    226.586354                    
V 18   3706.062717  27412.321826   1743.884335      0.018485                    
P 19  -3729.289540 -15361.947775 -21361.665455   -325.822571                    
V 19  23060.263319 -14089.160735   6523.694925     -0.034163                    
P 20 -14055.732146 -17560.277991  14012.549461     74.604485                    
V 20   -636.621759 -18346.292598 -23274.106665      0.011673                    
P 21  24911.236083   2804.497311  -9047.217344   -264.753023                    
V 21  10059.750267   7392.614363  27805.808239     -0.023533                    
P 22  11631.418266 -15318.932210 -18079.051587    152.151014                    
V 22   5267.263680  22998.035532 -16064.044881      0.008172                    
P 23 -13876.234372  -8179.348604  21236.820357    139.884416                    
V 23  20978.248243 -16639.993485   6941.919212     -0.038324                    
P 24  18446.349835  15581.260483 -11073.547294      3.315297                    
V 24 -13994.644322  -2842.046492 -27291.693061     -0.006547                    
P 25  15244.768608   7380.471411  20439.483516     53.247759                    
V 25   3024.220174  25825.699223 -11490.920870      0.020264                    
P 26  -5741.762502  18553.922321 -18576.822495   -195.547916                    
V 26 -19458.381186  11173.133979  18122.635850      0.135990                    
P 28 -12403.788070  11263.163754 -19982.528012    208.504895                    
V 28  -3438.243184 -26463.575659 -12635.014588      0.036716                    
P 29  20492.905791   -201.925674  16925.795865    381.358598                    
V 29 -16425.962849  13823.744495  20149.528172      0.039830                    
P 30   3333.867434 -22976.915006  12567.541541   -305.004099                    
V 30   6243.057990  15469.800008  25876.932454      0.142824                    
P 31  10542.745035 -11371.599065  21790.717072    289.061146                    
V 31  24826.329569  10901.691564  -6128.531150      0.021192                    
P 32  -6838.155964 -24837.441488   7646.216369   -511.628663                    
V 32   1971.890581  -9489.984008 -29208.240211     -0.034428                    
EOF
